{
    "links": {
        "self": "http://www.neowsapp.com/rest/v1/neo/3840769?api_key=iIulBulltgU6a56xZRHN4H3l9WmuAYTsLGpBGhQ2"
    },
    "id": "3840769",
    "neo_reference_id": "3840769",
    "name": "(2019 GR)",
    "designation": "2019 GR",
    "nasa_jpl_url": "http://ssd.jpl.nasa.gov/sbdb.cgi?sstr=3840769",
    "absolute_magnitude_h": 25.7,
    "estimated_diameter": {
        "kilometers": {
            "estimated_diameter_min": 0.0192555078,
            "estimated_diameter_max": 0.0430566244
        },
        "meters": {
            "estimated_diameter_min": 19.2555078188,
            "estimated_diameter_max": 43.0566244241
        },
        "miles": {
            "estimated_diameter_min": 0.0119648141,
            "estimated_diameter_max": 0.0267541378
        },
        "feet": {
            "estimated_diameter_min": 63.1742402722,
            "estimated_diameter_max": 141.2618956756
        }
    },
    "is_potentially_hazardous_asteroid": false,
    "close_approach_data": [
        {
            "close_approach_date": "1975-05-09",
            "close_approach_date_full": "1975-May-09 15:08",
            "epoch_date_close_approach": 168880080000,
            "relative_velocity": {
                "kilometers_per_second": "10.3443301929",
                "kilometers_per_hour": "37239.5886945494",
                "miles_per_hour": "23139.232208566"
            },
            "miss_distance": {
                "astronomical": "0.1564720092",
                "lunar": "60.8676115788",
                "kilometers": "23407879.290940404",
                "miles": "14544981.7316254152"
            },
            "orbiting_body": "Earth"
        },
        {
            "close_approach_date": "2019-04-08",
            "close_approach_date_full": "2019-Apr-08 10:46",
            "epoch_date_close_approach": 1554720360000,
            "relative_velocity": {
                "kilometers_per_second": "5.703164694",
                "kilometers_per_hour": "20531.3928984211",
                "miles_per_hour": "12757.4091040217"
            },
            "miss_distance": {
                "astronomical": "0.0291314399",
                "lunar": "11.3321301211",
                "kilometers": "4358001.359073013",
                "miles": "2707936.4758450594"
            },
            "orbiting_body": "Earth"
        },
        {
            "close_approach_date": "2094-03-01",
            "close_approach_date_full": "2094-Mar-01 02:32",
            "epoch_date_close_approach": 3918249120000,
            "relative_velocity": {
                "kilometers_per_second": "10.4177198845",
                "kilometers_per_hour": "37503.7915843447",
                "miles_per_hour": "23303.397609728"
            },
            "miss_distance": {
                "astronomical": "0.160776317",
                "lunar": "62.541987313",
                "kilometers": "24051794.56964479",
                "miles": "14945092.132446502"
            },
            "orbiting_body": "Earth"
        },
        {
            "close_approach_date": "2153-11-18",
            "close_approach_date_full": "2153-Nov-18 11:49",
            "epoch_date_close_approach": 5802752940000,
            "relative_velocity": {
                "kilometers_per_second": "13.9608008869",
                "kilometers_per_hour": "50258.8831927169",
                "miles_per_hour": "31228.9155038301"
            },
            "miss_distance": {
                "astronomical": "0.0701916607",
                "lunar": "27.3045560123",
                "kilometers": "10500522.932482709",
                "miles": "6524722.3948470242"
            },
            "orbiting_body": "Mars"
        },
        {
            "close_approach_date": "2156-02-23",
            "close_approach_date_full": "2156-Feb-23 17:48",
            "epoch_date_close_approach": 5874227280000,
            "relative_velocity": {
                "kilometers_per_second": "13.7353329282",
                "kilometers_per_hour": "49447.1985414973",
                "miles_per_hour": "30724.5662270765"
            },
            "miss_distance": {
                "astronomical": "0.2690331419",
                "lunar": "104.6538921991",
                "kilometers": "40246784.987647753",
                "miles": "25008192.5460268714"
            },
            "orbiting_body": "Earth"
        }
    ],
    "orbital_data": {
        "orbit_id": "10",
        "orbit_determination_date": "2019-05-01 07:00:23",
        "first_observation_date": "2019-04-03",
        "last_observation_date": "2019-05-01",
        "data_arc_in_days": 28,
        "observations_used": 74,
        "orbit_uncertainty": "7",
        "minimum_orbit_intersection": ".0277006",
        "jupiter_tisserand_invariant": "3.833",
        "epoch_osculation": "2459000.5",
        "eccentricity": ".4550190384461459",
        "semi_major_axis": "1.884294393039776",
        "inclination": ".4042164419055128",
        "ascending_node_longitude": "133.5757389626976",
        "orbital_period": "944.7601373109588",
        "perihelion_distance": "1.026904570169353",
        "perihelion_argument": "57.73179197848",
        "aphelion_distance": "2.741684215910198",
        "perihelion_time": "2458576.261524479764",
        "mean_anomaly": "161.6556892651969",
        "mean_motion": ".3810490999595482",
        "equinox": "J2000",
        "orbit_class": {
            "orbit_class_type": "AMO",
            "orbit_class_description": "Near-Earth asteroid orbits similar to that of 1221 Amor",
            "orbit_class_range": "1.017 AU < q (perihelion) < 1.3 AU"
        }
    },
    "is_sentry_object": false
}